GLOBALSTAR M045 [-]     
1 25676U 99019A   24072.48284609 -.00000123  00000+0 -26384-3 0  9993
2 25676  51.9962 181.1906 0000989  88.8179 351.2230 12.27032599136717
GLOBALSTAR M019 [-]     
1 25677U 99019B   24073.00223935 -.00000016  00000+0  76992-3 0  9998
2 25677  51.9860 277.6339 0001839  95.5453  71.0091 12.13851201129135
GLOBALSTAR M044 [-]     
1 25678U 99019C   24072.53823245 -.00000064  00000+0  27877-3 0  9997
2 25678  51.9956 172.5276 0006141 223.8918 149.5018 11.90229598116350
GLOBALSTAR M042 [-]     
1 25679U 99019D   24072.95020538 -.00000064  00000+0  26097-3 0  9991
2 25679  51.9998 273.0110 0003881  72.6446  76.9732 12.22057500128868
GLOBALSTAR M025 [-]     
1 25770U 99031A   24072.52618497 -.00000068  00000+0 -49224-5 0  9991
2 25770  51.9800 148.7358 0001850 109.3939 352.8830 11.22549521429860
GLOBALSTAR M047 [-]     
1 25772U 99031C   24072.65196638 -.00000067  00000+0  57155-4 0  9994
2 25772  51.9812 201.0750 0016697 187.4521 172.6039 11.31919093418843
GLOBALSTAR M052 [-]     
1 25773U 99031D   24072.81460828 -.00000017  00000+0  16358-2 0  9991
2 25773  51.9850 274.8102 0003414 118.2532 254.5572 11.15049498427041
